{
  "type": "FeatureCollection",
  "features": [
    {
      "type": "Feature",
      "properties": {
        "norad_id": 27954,
        "name": "GALAXY 13 (HORIZONS-1)",
        "group": "intelsat",
        "lat": -0.8681993118320144,
        "lon": -19.788469429463884,
        "alt_km": 35786.20089482229,
        "timestamp": "2025-12-04T03:47:54.221401+00:00",
        "meta_object_name": "GALAXY 13 (HORIZONS-1)",
        "meta_object_id": "2003-044A",
        "meta_epoch": "2025-12-03T16:28:01.619040",
        "meta_mean_motion": 1.00272649,
        "meta_eccentricity": 0.0002065,
        "meta_inclination": 0.9122,
        "meta_ra_of_asc_node": 86.5838,
        "meta_arg_of_pericenter": 161.5998,
        "meta_mean_anomaly": 281.5908,
        "meta_ephemeris_type": 0,
        "meta_classification_type": "U",
        "meta_norad_cat_id": 27954,
        "meta_element_set_no": 999,
        "meta_rev_at_epoch": 4461,
        "meta_bstar": 0,
        "meta_mean_motion_dot": 1.5e-06,
        "meta_mean_motion_ddot": 0,
        "tle_line1": "1 27954U 03044A   25337.68612985  .00000150  00000+0  00000+0 0  9997",
        "tle_line2": "2 27954   0.9122  86.5838 0002065 161.5998 281.5908  1.00272649 44612"
      },
      "geometry": {
        "type": "Point",
        "coordinates": [
          -19.788469429463884,
          -0.8681993118320144
        ]
      }
    },
    {
      "type": "Feature",
      "properties": {
        "norad_id": 28358,
        "name": "INTELSAT 10-02",
        "group": "intelsat",
        "lat": 0.024144676291227102,
        "lon": 129.18970104738065,
        "alt_km": 35790.360353100994,
        "timestamp": "2025-12-04T03:47:54.221413+00:00",
        "meta_object_name": "INTELSAT 10-02",
        "meta_object_id": "2004-022A",
        "meta_epoch": "2025-12-03T18:42:38.602944",
        "meta_mean_motion": 1.00270244,
        "meta_eccentricity": 0.0001081,
        "meta_inclination": 0.0378,
        "meta_ra_of_asc_node": 79.6983,
        "meta_arg_of_pericenter": 197.3997,
        "meta_mean_anomaly": 75.4348,
        "meta_ephemeris_type": 0,
        "meta_classification_type": "U",
        "meta_norad_cat_id": 28358,
        "meta_element_set_no": 999,
        "meta_rev_at_epoch": 7859,
        "meta_bstar": 0,
        "meta_mean_motion_dot": 6e-08,
        "meta_mean_motion_ddot": 0,
        "tle_line1": "1 28358U 04022A   25337.77961346  .00000006  00000+0  00000+0 0  9991",
        "tle_line2": "2 28358   0.0378  79.6983 0001081 197.3997  75.4348  1.00270244 78593"
      },
      "geometry": {
        "type": "Point",
        "coordinates": [
          129.18970104738065,
          0.024144676291227102
        ]
      }
    },
    {
      "type": "Feature",
      "properties": {
        "norad_id": 28626,
        "name": "XM-3 (RHYTHM)",
        "group": "intelsat",
        "lat": -0.07884525367096598,
        "lon": -74.79467522455592,
        "alt_km": 36157.25480358651,
        "timestamp": "2025-12-04T03:47:54.221426+00:00",
        "meta_object_name": "XM-3 (RHYTHM)",
        "meta_object_id": "2005-008A",
        "meta_epoch": "2025-12-03T17:53:51.059040",
        "meta_mean_motion": 0.98954968,
        "meta_eccentricity": 9.37e-05,
        "meta_inclination": 0.1497,
        "meta_ra_of_asc_node": 80.8491,
        "meta_arg_of_pericenter": 262.3393,
        "meta_mean_anomaly": 155.0849,
        "meta_ephemeris_type": 0,
        "meta_classification_type": "U",
        "meta_norad_cat_id": 28626,
        "meta_element_set_no": 999,
        "meta_rev_at_epoch": 4066,
        "meta_bstar": 0,
        "meta_mean_motion_dot": -2.47e-06,
        "meta_mean_motion_ddot": 0,
        "tle_line1": "1 28626U 05008A   25337.74572985 -.00000247  00000+0  00000+0 0  9996",
        "tle_line2": "2 28626   0.1497  80.8491 0000937 262.3393 155.0849  0.98954968 40660"
      },
      "geometry": {
        "type": "Point",
        "coordinates": [
          -74.79467522455592,
          -0.07884525367096598
        ]
      }
    },
    {
      "type": "Feature",
      "properties": {
        "norad_id": 28659,
        "name": "DIRECTV 8",
        "group": "intelsat",
        "lat": 0.033727458428227435,
        "lon": 11.188806896564108,
        "alt_km": 35790.9952341207,
        "timestamp": "2025-12-04T03:47:54.221438+00:00",
        "meta_object_name": "DIRECTV 8",
        "meta_object_id": "2005-019A",
        "meta_epoch": "2025-12-03T13:11:23.970336",
        "meta_mean_motion": 1.00271387,
        "meta_eccentricity": 0.0003317,
        "meta_inclination": 0.0159,
        "meta_ra_of_asc_node": 313.723,
        "meta_arg_of_pericenter": 307.4346,
        "meta_mean_anomaly": 250.2929,
        "meta_ephemeris_type": 0,
        "meta_classification_type": "U",
        "meta_norad_cat_id": 28659,
        "meta_element_set_no": 999,
        "meta_rev_at_epoch": 7511,
        "meta_bstar": 0,
        "meta_mean_motion_dot": 1.9e-07,
        "meta_mean_motion_ddot": 0,
        "tle_line1": "1 28659U 05019A   25337.54958299  .00000019  00000+0  00000+0 0  9994",
        "tle_line2": "2 28659   0.0159 313.7230 0003317 307.4346 250.2929  1.00271387 75119"
      },
      "geometry": {
        "type": "Point",
        "coordinates": [
          11.188806896564108,
          0.033727458428227435
        ]
      }
    },
    {
      "type": "Feature",
      "properties": {
        "norad_id": 28702,
        "name": "GALAXY 28 (G-28)",
        "group": "intelsat",
        "lat": -1.7663532752334603,
        "lon": 41.543424545055025,
        "alt_km": 35795.934566497126,
        "timestamp": "2025-12-04T03:47:54.221477+00:00",
        "meta_object_name": "GALAXY 28 (G-28)",
        "meta_object_id": "2005-022A",
        "meta_epoch": "2025-12-03T13:20:00.644928",
        "meta_mean_motion": 1.00272256,
        "meta_eccentricity": 0.0002642,
        "meta_inclination": 2.7952,
        "meta_ra_of_asc_node": 81.3879,
        "meta_arg_of_pericenter": 169.944,
        "meta_mean_anomaly": 292.6137,
        "meta_ephemeris_type": 0,
        "meta_classification_type": "U",
        "meta_norad_cat_id": 28702,
        "meta_element_set_no": 999,
        "meta_rev_at_epoch": 5001,
        "meta_bstar": 0,
        "meta_mean_motion_dot": -1.7e-06,
        "meta_mean_motion_ddot": 0,
        "tle_line1": "1 28702U 05022A   25337.55556302 -.00000170  00000+0  00000+0 0  9996",
        "tle_line2": "2 28702   2.7952  81.3879 0002642 169.9440 292.6137  1.00272256 50010"
      },
      "geometry": {
        "type": "Point",
        "coordinates": [
          41.543424545055025,
          -1.7663532752334603
        ]
      }
    },
    {
      "type": "Feature",
      "properties": {
        "norad_id": 29236,
        "name": "GALAXY 16 (G-16)",
        "group": "intelsat",
        "lat": 0.017587772193388706,
        "lon": 31.200112676819252,
        "alt_km": 35795.36045419962,
        "timestamp": "2025-12-04T03:47:54.221492+00:00",
        "meta_object_name": "GALAXY 16 (G-16)",
        "meta_object_id": "2006-023A",
        "meta_epoch": "2025-12-03T13:17:08.421216",
        "meta_mean_motion": 1.00270132,
        "meta_eccentricity": 0.0002906,
        "meta_inclination": 0.0242,
        "meta_ra_of_asc_node": 220.5298,
        "meta_arg_of_pericenter": 35.0993,
        "meta_mean_anomaly": 277.2871,
        "meta_ephemeris_type": 0,
        "meta_classification_type": "U",
        "meta_norad_cat_id": 29236,
        "meta_element_set_no": 999,
        "meta_rev_at_epoch": 7101,
        "meta_bstar": 0,
        "meta_mean_motion_dot": -1.09e-06,
        "meta_mean_motion_ddot": 0,
        "tle_line1": "1 29236U 06023A   25337.55356969 -.00000109  00000+0  00000+0 0  9990",
        "tle_line2": "2 29236   0.0242 220.5298 0002906  35.0993 277.2871  1.00270132 71015"
      },
      "geometry": {
        "type": "Point",
        "coordinates": [
          31.200112676819252,
          0.017587772193388706
        ]
      }
    },
    {
      "type": "Feature",
      "properties": {
        "norad_id": 29494,
        "name": "DIRECTV 9S",
        "group": "intelsat",
        "lat": -1.5313656050310178,
        "lon": 29.02708422877397,
        "alt_km": 35796.58541698805,
        "timestamp": "2025-12-04T03:47:54.221504+00:00",
        "meta_object_name": "DIRECTV 9S",
        "meta_object_id": "2006-043A",
        "meta_epoch": "2025-12-03T13:16:30.979776",
        "meta_mean_motion": 1.00270563,
        "meta_eccentricity": 0.0003202,
        "meta_inclination": 1.9146,
        "meta_ra_of_asc_node": 83.3064,
        "meta_arg_of_pericenter": 168.5637,
        "meta_mean_anomaly": 278.696,
        "meta_ephemeris_type": 0,
        "meta_classification_type": "U",
        "meta_norad_cat_id": 29494,
        "meta_element_set_no": 999,
        "meta_rev_at_epoch": 4942,
        "meta_bstar": 0,
        "meta_mean_motion_dot": -9.6e-07,
        "meta_mean_motion_ddot": 0,
        "tle_line1": "1 29494U 06043A   25337.55313634 -.00000096  00000+0  00000+0 0  9995",
        "tle_line2": "2 29494   1.9146  83.3064 0003202 168.5637 278.6960  1.00270563 49429"
      },
      "geometry": {
        "type": "Point",
        "coordinates": [
          29.02708422877397,
          -1.5313656050310178
        ]
      }
    }
  ]
}